[
  {
    "OBJECT_NAME": "MESAT1",
    "OBJECT_ID": "2024-125G",
    "EPOCH": "2025-06-07T13:19:04.801152",
    "MEAN_MOTION": 15.3604173,
    "ECCENTRICITY": 0.0020045,
    "INCLINATION": 97.28,
    "RA_OF_ASC_NODE": 10.1966,
    "ARG_OF_PERICENTER": 141.3985,
    "MEAN_ANOMALY": 218.8697,
    "EPHEMERIS_TYPE": 0,
    "CLASSIFICATION_TYPE": "U",
    "NORAD_CAT_ID": 60209,
    "ELEMENT_SET_NO": 999,
    "REV_AT_EPOCH": 5164,
    "BSTAR": 0.00041889,
    "MEAN_MOTION_DOT": 0.0001473,
    "MEAN_MOTION_DDOT": 0
  },
  {
    "OBJECT_NAME": "OOV-CUBE (TUBSAT-30)",
    "OBJECT_ID": "2024-128F",
    "EPOCH": "2025-06-06T22:19:41.999808",
    "MEAN_MOTION": 15.00241065,
    "ECCENTRICITY": 0.0051717,
    "INCLINATION": 61.9959,
    "RA_OF_ASC_NODE": 91.568,
    "ARG_OF_PERICENTER": 53.7806,
    "MEAN_ANOMALY": 306.8048,
    "EPHEMERIS_TYPE": 0,
    "CLASSIFICATION_TYPE": "U",
    "NORAD_CAT_ID": 60240,
    "ELEMENT_SET_NO": 999,
    "REV_AT_EPOCH": 4976,
    "BSTAR": 0.00019911,
    "MEAN_MOTION_DOT": 2.362e-05,
    "MEAN_MOTION_DDOT": 0
  },
  {
    "OBJECT_NAME": "COLIBRI-S (RS67S)",
    "OBJECT_ID": "2024-199M",
    "EPOCH": "2025-06-07T21:46:02.357472",
    "MEAN_MOTION": 15.32551219,
    "ECCENTRICITY": 0.0012187,
    "INCLINATION": 97.3578,
    "RA_OF_ASC_NODE": 27.5774,
    "ARG_OF_PERICENTER": 180.7807,
    "MEAN_ANOMALY": 179.3418,
    "EPHEMERIS_TYPE": 0,
    "CLASSIFICATION_TYPE": "U",
    "NORAD_CAT_ID": 61746,
    "ELEMENT_SET_NO": 999,
    "REV_AT_EPOCH": 7983,
    "BSTAR": 0.00032672,
    "MEAN_MOTION_DOT": 0.00010217,
    "MEAN_MOTION_DDOT": 0
  },
  {
    "OBJECT_NAME": "HORS 3 (RS81S)",
    "OBJECT_ID": "2024-199U",
    "EPOCH": "2025-06-07T21:36:26.205120",
    "MEAN_MOTION": 15.33888448,
    "ECCENTRICITY": 0.001036,
    "INCLINATION": 97.3546,
    "RA_OF_ASC_NODE": 27.6558,
    "ARG_OF_PERICENTER": 185.9995,
    "MEAN_ANOMALY": 174.1126,
    "EPHEMERIS_TYPE": 0,
    "CLASSIFICATION_TYPE": "U",
    "NORAD_CAT_ID": 61753,
    "ELEMENT_SET_NO": 999,
    "REV_AT_EPOCH": 7984,
    "BSTAR": 0.00041224,
    "MEAN_MOTION_DOT": 0.00013465,
    "MEAN_MOTION_DDOT": 0
  },
  {
    "OBJECT_NAME": "HORS 4 (RS82S)",
    "OBJECT_ID": "2024-199V",
    "EPOCH": "2025-06-07T21:41:45.014208",
    "MEAN_MOTION": 15.34636886,
    "ECCENTRICITY": 0.0010507,
    "INCLINATION": 97.3542,
    "RA_OF_ASC_NODE": 27.7945,
    "ARG_OF_PERICENTER": 185.9326,
    "MEAN_ANOMALY": 174.1794,
    "EPHEMERIS_TYPE": 0,
    "CLASSIFICATION_TYPE": "U",
    "NORAD_CAT_ID": 61754,
    "ELEMENT_SET_NO": 999,
    "REV_AT_EPOCH": 7985,
    "BSTAR": 0.00039752,
    "MEAN_MOTION_DOT": 0.00013294,
    "MEAN_MOTION_DDOT": 0
  },
  {
    "OBJECT_NAME": "HORIZON (RS59S)",
    "OBJECT_ID": "2024-199Y",
    "EPOCH": "2025-06-07T21:29:49.844256",
    "MEAN_MOTION": 15.37831415,
    "ECCENTRICITY": 0.0011129,
    "INCLINATION": 97.3566,
    "RA_OF_ASC_NODE": 28.3329,
    "ARG_OF_PERICENTER": 173.9733,
    "MEAN_ANOMALY": 186.1647,
    "EPHEMERIS_TYPE": 0,
    "CLASSIFICATION_TYPE": "U",
    "NORAD_CAT_ID": 61757,
    "ELEMENT_SET_NO": 999,
    "REV_AT_EPOCH": 7988,
    "BSTAR": 0.00053833,
    "MEAN_MOTION_DOT": 0.00019999,
    "MEAN_MOTION_DDOT": 0
  },
  {
    "OBJECT_NAME": "SIT-2086",
    "OBJECT_ID": "2024-199AF",
    "EPOCH": "2025-06-07T20:31:32.688480",
    "MEAN_MOTION": 15.35894027,
    "ECCENTRICITY": 0.0008739,
    "INCLINATION": 97.3548,
    "RA_OF_ASC_NODE": 28.021,
    "ARG_OF_PERICENTER": 180.7337,
    "MEAN_ANOMALY": 179.3896,
    "EPHEMERIS_TYPE": 0,
    "CLASSIFICATION_TYPE": "U",
    "NORAD_CAT_ID": 61764,
    "ELEMENT_SET_NO": 999,
    "REV_AT_EPOCH": 7670,
    "BSTAR": 0.00027781,
    "MEAN_MOTION_DOT": 9.637e-05,
    "MEAN_MOTION_DDOT": 0
  },
  {
    "OBJECT_NAME": "MORDOVIA-IOT (RS50S)",
    "OBJECT_ID": "2024-199AG",
    "EPOCH": "2025-06-07T21:19:52.548960",
    "MEAN_MOTION": 15.41660908,
    "ECCENTRICITY": 0.0010595,
    "INCLINATION": 97.3545,
    "RA_OF_ASC_NODE": 28.9282,
    "ARG_OF_PERICENTER": 168.1239,
    "MEAN_ANOMALY": 192.0259,
    "EPHEMERIS_TYPE": 0,
    "CLASSIFICATION_TYPE": "U",
    "NORAD_CAT_ID": 61765,
    "ELEMENT_SET_NO": 999,
    "REV_AT_EPOCH": 7677,
    "BSTAR": 0.00065423,
    "MEAN_MOTION_DOT": 0.00027603,
    "MEAN_MOTION_DDOT": 0
  },
  {
    "OBJECT_NAME": "RUZAEVKA 390 (RS44S)",
    "OBJECT_ID": "2024-199AH",
    "EPOCH": "2025-06-07T21:37:17.137920",
    "MEAN_MOTION": 15.40354985,
    "ECCENTRICITY": 0.0010629,
    "INCLINATION": 97.3545,
    "RA_OF_ASC_NODE": 28.7568,
    "ARG_OF_PERICENTER": 168.6475,
    "MEAN_ANOMALY": 191.5013,
    "EPHEMERIS_TYPE": 0,
    "CLASSIFICATION_TYPE": "U",
    "NORAD_CAT_ID": 61766,
    "ELEMENT_SET_NO": 999,
    "REV_AT_EPOCH": 7676,
    "BSTAR": 0.00059112,
    "MEAN_MOTION_DOT": 0.00023866,
    "MEAN_MOTION_DDOT": 0
  },
  {
    "OBJECT_NAME": "HYPERVIEW 1G (RS66S)",
    "OBJECT_ID": "2024-199AP",
    "EPOCH": "2025-06-07T20:25:52.029696",
    "MEAN_MOTION": 15.35424306,
    "ECCENTRICITY": 0.0013407,
    "INCLINATION": 97.3545,
    "RA_OF_ASC_NODE": 27.7136,
    "ARG_OF_PERICENTER": 191.0965,
    "MEAN_ANOMALY": 168.9985,
    "EPHEMERIS_TYPE": 0,
    "CLASSIFICATION_TYPE": "U",
    "NORAD_CAT_ID": 61772,
    "ELEMENT_SET_NO": 999,
    "REV_AT_EPOCH": 7669,
    "BSTAR": 0.00051158,
    "MEAN_MOTION_DOT": 0.00017595,
    "MEAN_MOTION_DDOT": 0
  },
  {
    "OBJECT_NAME": "ALTAIR (RS65S)",
    "OBJECT_ID": "2024-199AW",
    "EPOCH": "2025-06-07T21:40:44.072832",
    "MEAN_MOTION": 15.28917619,
    "ECCENTRICITY": 0.0014961,
    "INCLINATION": 97.3567,
    "RA_OF_ASC_NODE": 26.7787,
    "ARG_OF_PERICENTER": 197.0469,
    "MEAN_ANOMALY": 163.0271,
    "EPHEMERIS_TYPE": 0,
    "CLASSIFICATION_TYPE": "U",
    "NORAD_CAT_ID": 61779,
    "ELEMENT_SET_NO": 999,
    "REV_AT_EPOCH": 7978,
    "BSTAR": 0.00022718,
    "MEAN_MOTION_DOT": 6.327e-05,
    "MEAN_MOTION_DDOT": 0
  },
  {
    "OBJECT_NAME": "ASRTU-1 (AO-123)",
    "OBJECT_ID": "2024-199AY",
    "EPOCH": "2025-06-07T21:03:54.992448",
    "MEAN_MOTION": 15.28342246,
    "ECCENTRICITY": 0.0015232,
    "INCLINATION": 97.3557,
    "RA_OF_ASC_NODE": 26.6454,
    "ARG_OF_PERICENTER": 197.746,
    "MEAN_ANOMALY": 162.325,
    "EPHEMERIS_TYPE": 0,
    "CLASSIFICATION_TYPE": "U",
    "NORAD_CAT_ID": 61781,
    "ELEMENT_SET_NO": 999,
    "REV_AT_EPOCH": 7662,
    "BSTAR": 0.00018793,
    "MEAN_MOTION_DOT": 5.129e-05,
    "MEAN_MOTION_DDOT": 0
  },
  {
    "OBJECT_NAME": "TUSUR GO (RS78S)",
    "OBJECT_ID": "2024-199AZ",
    "EPOCH": "2025-06-07T21:29:24.561024",
    "MEAN_MOTION": 15.36579292,
    "ECCENTRICITY": 0.0013724,
    "INCLINATION": 97.3538,
    "RA_OF_ASC_NODE": 27.8035,
    "ARG_OF_PERICENTER": 189.93,
    "MEAN_ANOMALY": 170.1675,
    "EPHEMERIS_TYPE": 0,
    "CLASSIFICATION_TYPE": "U",
    "NORAD_CAT_ID": 61782,
    "ELEMENT_SET_NO": 999,
    "REV_AT_EPOCH": 7670,
    "BSTAR": 0.00057805,
    "MEAN_MOTION_DOT": 0.00020653,
    "MEAN_MOTION_DDOT": 0
  },
  {
    "OBJECT_NAME": "SAMSAT-IONOSPHERE (RS75S)",
    "OBJECT_ID": "2024-199BB",
    "EPOCH": "2025-06-07T21:01:13.782144",
    "MEAN_MOTION": 15.33390836,
    "ECCENTRICITY": 0.0014399,
    "INCLINATION": 97.355,
    "RA_OF_ASC_NODE": 27.3925,
    "ARG_OF_PERICENTER": 193.1745,
    "MEAN_ANOMALY": 166.9123,
    "EPHEMERIS_TYPE": 0,
    "CLASSIFICATION_TYPE": "U",
    "NORAD_CAT_ID": 61784,
    "ELEMENT_SET_NO": 999,
    "REV_AT_EPOCH": 7982,
    "BSTAR": 0.00040837,
    "MEAN_MOTION_DOT": 0.00013149,
    "MEAN_MOTION_DDOT": 0
  }
]