60209,MESAT1,2024,93.75,-1.0,+,97.28,Active,0,LEO,USA,USA,Unknown,Unknown,Unknown,1 60209U 24125G   25158.55491668  .00014730  00000+0  41889-3 0  9993,2 60209  97.2800  10.1966 0020045 141.3985 218.8697 15.36041730 51647,15.3604173,0.0020045,LEO
60240,OOV-CUBE (TUBSAT-30),2024,95.98,-1.0,+,62.0,Active,0,LEO,French Guiana,Germany,Unknown,Unknown,Unknown,1 60240U 24128F   25157.93034722  .00002362  00000+0  19911-3 0  9995,2 60240  61.9959  91.5680 0051717  53.7806 306.8048 15.00241065 49761,15.00241065,0.0051717,LEO
61746,COLIBRI-S (RS67S),2024,93.96,-1.0,+,97.36,Active,0,LEO,Russia,Russia/USSR,Unknown,Unknown,Unknown,1 61746U 24199M   25158.90697173  .00010217  00000+0  32672-3 0  9995,2 61746  97.3578  27.5774 0012187 180.7807 179.3418 15.32551219 79831,15.32551219,0.0012187,LEO
61753,HORS 3 (RS81S),2024,93.88,-1.0,+,97.35,Active,0,LEO,Russia,Russia/USSR,Unknown,Unknown,Unknown,1 61753U 24199U   25158.90030330  .00013465  00000+0  41224-3 0  9990,2 61753  97.3546  27.6558 0010360 185.9995 174.1126 15.33888448 79849,15.33888448,0.001036,LEO
61754,HORS 4 (RS82S),2024,93.83,-1.0,+,97.35,Active,0,LEO,Russia,Russia/USSR,Unknown,Unknown,Unknown,1 61754U 24199V   25158.90399322  .00013294  00000+0  39752-3 0  9993,2 61754  97.3542  27.7945 0010507 185.9326 174.1794 15.34636886 79858,15.34636886,0.0010507,LEO
61757,HORIZON (RS59S),2024,93.64,-1.0,+,97.36,Active,0,LEO,Russia,Russia/USSR,Unknown,Unknown,Unknown,1 61757U 24199Y   25158.89571579  .00019999  00000+0  53833-3 0  9994,2 61757  97.3566  28.3329 0011129 173.9733 186.1647 15.37831415 79881,15.37831415,0.0011129,LEO
61764,SIT-2086,2024,93.76,-1.0,+,97.35,Active,0,LEO,Russia,Russia/USSR,Unknown,Unknown,Unknown,1 61764U 24199AF  25158.85523945  .00009637  00000+0  27781-3 0  9993,2 61764  97.3548  28.0210 0008739 180.7337 179.3896 15.35894027 76708,15.35894027,0.0008739,LEO
61765,MORDOVIA-IOT (RS50S),2024,93.41,-1.0,+,97.35,Active,0,LEO,Russia,Russia/USSR,Unknown,Unknown,Unknown,1 61765U 24199AG  25158.88880265  .00027603  00000+0  65423-3 0  9996,2 61765  97.3545  28.9282 0010595 168.1239 192.0259 15.41660908 76776,15.41660908,0.0010595,LEO
61766,RUZAEVKA 390 (RS44S),2024,93.49,-1.0,+,97.35,Active,0,LEO,Russia,Russia/USSR,Unknown,Unknown,Unknown,1 61766U 24199AH  25158.90089280  .00023866  00000+0  59112-3 0  9993,2 61766  97.3545  28.7568 0010629 168.6475 191.5013 15.40354985 76762,15.40354985,0.0010629,LEO
61772,HYPERVIEW 1G (RS66S),2024,93.79,-1.0,+,97.35,Active,0,LEO,Russia,Russia/USSR,Unknown,Unknown,Unknown,1 61772U 24199AP  25158.85129664  .00017595  00000+0  51158-3 0  9999,2 61772  97.3545  27.7136 0013407 191.0965 168.9985 15.35424306 76697,15.35424306,0.0013407,LEO
61779,ALTAIR (RS65S),2024,94.18,-1.0,+,97.36,Active,0,LEO,Russia,Russia/USSR,Unknown,Unknown,Unknown,1 61779U 24199AW  25158.90328788  .00006327  00000+0  22718-3 0  9991,2 61779  97.3567  26.7787 0014961 197.0469 163.0271 15.28917619 79783,15.28917619,0.0014961,LEO
61781,ASRTU-1 (AO-123),2024,94.22,-1.0,+,97.36,Active,0,LEO,Russia,China,Unknown,Unknown,Unknown,1 61781U 24199AY  25158.87771982  .00005129  00000+0  18793-3 0  9995,2 61781  97.3557  26.6454 0015232 197.7460 162.3250 15.28342246 76622,15.28342246,0.0015232,LEO
61782,TUSUR GO (RS78S),2024,93.72,-1.0,+,97.35,Active,0,LEO,Russia,Russia/USSR,Unknown,Unknown,Unknown,1 61782U 24199AZ  25158.89542316  .00020653  00000+0  57805-3 0  9991,2 61782  97.3538  27.8035 0013724 189.9300 170.1675 15.36579292 76709,15.36579292,0.0013724,LEO
61784,SAMSAT-IONOSPHERE (RS75S),2024,93.91,-1.0,+,97.36,Active,0,LEO,Russia,Russia/USSR,Unknown,Unknown,Unknown,1 61784U 24199BB  25158.87585396  .00013149  00000+0  40837-3 0  9995,2 61784  97.3550  27.3925 0014399 193.1745 166.9123 15.33390836 79826,15.33390836,0.0014399,LEO
